[
    {
        "OBJECT_NAME": "COSMOS 2522 [GLONASS-M]",
        "OBJECT_ID": "2017-055A",
        "EPOCH": "2026-07-20T10:33:59.590656",
        "MEAN_MOTION": 2.13101801,
        "ECCENTRICITY": 0.00108849,
        "INCLINATION": 64.0809,
        "RA_OF_ASC_NODE": 190.7524,
        "ARG_OF_PERICENTER": 240.637,
        "MEAN_ANOMALY": 119.2556,
        "EPHEMERIS_TYPE": 0,
        "CLASSIFICATION_TYPE": "U",
        "NORAD_CAT_ID": 42939,
        "ELEMENT_SET_NO": 999,
        "REV_AT_EPOCH": 6868,
        "BSTAR": 0,
        "MEAN_MOTION_DOT": 8.4e-07,
        "MEAN_MOTION_DDOT": 0
    },
    {
        "OBJECT_NAME": "COSMOS 2527 [GLONASS-M]",
        "OBJECT_ID": "2018-053A",
        "EPOCH": "2026-07-20T09:39:19.852704",
        "MEAN_MOTION": 2.13101992,
        "ECCENTRICITY": 0.00063441,
        "INCLINATION": 65.5961,
        "RA_OF_ASC_NODE": 72.7996,
        "ARG_OF_PERICENTER": 227.3843,
        "MEAN_ANOMALY": 132.6293,
        "EPHEMERIS_TYPE": 0,
        "CLASSIFICATION_TYPE": "U",
        "NORAD_CAT_ID": 43508,
        "ELEMENT_SET_NO": 999,
        "REV_AT_EPOCH": 6298,
        "BSTAR": 0,
        "MEAN_MOTION_DOT": -4.9e-07,
        "MEAN_MOTION_DDOT": 0
    },
    {
        "OBJECT_NAME": "COSMOS 2529 [GLONASS-M]",
        "OBJECT_ID": "2018-086A",
        "EPOCH": "2026-07-20T11:57:49.657824",
        "MEAN_MOTION": 2.13101999,
        "ECCENTRICITY": 0.00119769,
        "INCLINATION": 64.2975,
        "RA_OF_ASC_NODE": 191.4696,
        "ARG_OF_PERICENTER": 256.3144,
        "MEAN_ANOMALY": 103.5547,
        "EPHEMERIS_TYPE": 0,
        "CLASSIFICATION_TYPE": "U",
        "NORAD_CAT_ID": 43687,
        "ELEMENT_SET_NO": 999,
        "REV_AT_EPOCH": 5999,
        "BSTAR": 0,
        "MEAN_MOTION_DOT": 8.5e-07,
        "MEAN_MOTION_DDOT": 0
    },
    {
        "OBJECT_NAME": "COSMOS 2534 [GLONASS-M]",
        "OBJECT_ID": "2019-030A",
        "EPOCH": "2026-07-22T03:12:48.464928",
        "MEAN_MOTION": 2.13102306,
        "ECCENTRICITY": 0.00134376,
        "INCLINATION": 64.3713,
        "RA_OF_ASC_NODE": 191.4397,
        "ARG_OF_PERICENTER": 275.209,
        "MEAN_ANOMALY": 33.8854,
        "EPHEMERIS_TYPE": 0,
        "CLASSIFICATION_TYPE": "U",
        "NORAD_CAT_ID": 44299,
        "ELEMENT_SET_NO": 999,
        "REV_AT_EPOCH": 5566,
        "BSTAR": 0,
        "MEAN_MOTION_DOT": 9.3e-07,
        "MEAN_MOTION_DDOT": 0
    },
    {
        "OBJECT_NAME": "COSMOS 2544 [GLONASS-M]",
        "OBJECT_ID": "2019-088A",
        "EPOCH": "2026-07-18T22:32:17.742336",
        "MEAN_MOTION": 2.13102904,
        "ECCENTRICITY": 0.00120499,
        "INCLINATION": 65.5828,
        "RA_OF_ASC_NODE": 72.6716,
        "ARG_OF_PERICENTER": 253.1294,
        "MEAN_ANOMALY": 106.8089,
        "EPHEMERIS_TYPE": 0,
        "CLASSIFICATION_TYPE": "U",
        "NORAD_CAT_ID": 44850,
        "ELEMENT_SET_NO": 999,
        "REV_AT_EPOCH": 5139,
        "BSTAR": 0,
        "MEAN_MOTION_DOT": -3.8e-07,
        "MEAN_MOTION_DDOT": 0
    },
    {
        "OBJECT_NAME": "COSMOS 2545 [GLONASS-M]",
        "OBJECT_ID": "2020-018A",
        "EPOCH": "2026-07-20T01:44:27.975264",
        "MEAN_MOTION": 2.13102411,
        "ECCENTRICITY": 0.00099012,
        "INCLINATION": 64.3333,
        "RA_OF_ASC_NODE": 311.2627,
        "ARG_OF_PERICENTER": 230.0825,
        "MEAN_ANOMALY": 129.8537,
        "EPHEMERIS_TYPE": 0,
        "CLASSIFICATION_TYPE": "U",
        "NORAD_CAT_ID": 45358,
        "ELEMENT_SET_NO": 999,
        "REV_AT_EPOCH": 4936,
        "BSTAR": 0,
        "MEAN_MOTION_DOT": -8.3e-07,
        "MEAN_MOTION_DDOT": 0
    },
    {
        "OBJECT_NAME": "COSMOS 2547 [GLONASS-K]",
        "OBJECT_ID": "2020-075A",
        "EPOCH": "2026-07-20T06:17:43.424160",
        "MEAN_MOTION": 2.13099966,
        "ECCENTRICITY": 0.00094658,
        "INCLINATION": 64.6016,
        "RA_OF_ASC_NODE": 191.3717,
        "ARG_OF_PERICENTER": 239.9348,
        "MEAN_ANOMALY": 119.9732,
        "EPHEMERIS_TYPE": 0,
        "CLASSIFICATION_TYPE": "U",
        "NORAD_CAT_ID": 46805,
        "ELEMENT_SET_NO": 999,
        "REV_AT_EPOCH": 4461,
        "BSTAR": 0,
        "MEAN_MOTION_DOT": 8.3e-07,
        "MEAN_MOTION_DDOT": 0
    },
    {
        "OBJECT_NAME": "COSMOS 2557 [GLONASS-K]",
        "OBJECT_ID": "2022-075A",
        "EPOCH": "2026-07-20T21:29:46.401216",
        "MEAN_MOTION": 2.13102143,
        "ECCENTRICITY": 0.00108276,
        "INCLINATION": 64.2766,
        "RA_OF_ASC_NODE": 313.2973,
        "ARG_OF_PERICENTER": 270.8513,
        "MEAN_ANOMALY": 89.0451,
        "EPHEMERIS_TYPE": 0,
        "CLASSIFICATION_TYPE": "U",
        "NORAD_CAT_ID": 52984,
        "ELEMENT_SET_NO": 999,
        "REV_AT_EPOCH": 3143,
        "BSTAR": 0,
        "MEAN_MOTION_DOT": -8.8e-07,
        "MEAN_MOTION_DDOT": 0
    },
    {
        "OBJECT_NAME": "COSMOS 2559 [GLONASS-K]",
        "OBJECT_ID": "2022-130A",
        "EPOCH": "2026-07-21T04:25:53.062752",
        "MEAN_MOTION": 2.13101788,
        "ECCENTRICITY": 0.00131713,
        "INCLINATION": 64.2489,
        "RA_OF_ASC_NODE": 313.3698,
        "ARG_OF_PERICENTER": 181.7048,
        "MEAN_ANOMALY": 178.311,
        "EPHEMERIS_TYPE": 0,
        "CLASSIFICATION_TYPE": "U",
        "NORAD_CAT_ID": 54031,
        "ELEMENT_SET_NO": 999,
        "REV_AT_EPOCH": 2941,
        "BSTAR": 0,
        "MEAN_MOTION_DOT": -8.9e-07,
        "MEAN_MOTION_DDOT": 0
    },
    {
        "OBJECT_NAME": "COSMOS 2564 [GLONASS-M]",
        "OBJECT_ID": "2022-161A",
        "EPOCH": "2026-07-21T23:11:24.870912",
        "MEAN_MOTION": 2.13102079,
        "ECCENTRICITY": 0.00121703,
        "INCLINATION": 64.7442,
        "RA_OF_ASC_NODE": 191.5572,
        "ARG_OF_PERICENTER": 224.6979,
        "MEAN_ANOMALY": 135.2103,
        "EPHEMERIS_TYPE": 0,
        "CLASSIFICATION_TYPE": "U",
        "NORAD_CAT_ID": 54377,
        "ELEMENT_SET_NO": 999,
        "REV_AT_EPOCH": 2837,
        "BSTAR": 0,
        "MEAN_MOTION_DOT": 9.4e-07,
        "MEAN_MOTION_DDOT": 0
    },
    {
        "OBJECT_NAME": "COSMOS 2569 [GLONASS-K2]",
        "OBJECT_ID": "2023-114A",
        "EPOCH": "2026-07-21T12:13:21.268416",
        "MEAN_MOTION": 2.13103851,
        "ECCENTRICITY": 0.00094656,
        "INCLINATION": 65.322,
        "RA_OF_ASC_NODE": 71.4633,
        "ARG_OF_PERICENTER": 295.3236,
        "MEAN_ANOMALY": 64.6448,
        "EPHEMERIS_TYPE": 0,
        "CLASSIFICATION_TYPE": "U",
        "NORAD_CAT_ID": 57517,
        "ELEMENT_SET_NO": 999,
        "REV_AT_EPOCH": 2299,
        "BSTAR": 0,
        "MEAN_MOTION_DOT": -5.3e-07,
        "MEAN_MOTION_DDOT": 0
    },
    {
        "OBJECT_NAME": "COSMOS 2584 [GLONASS-K2]",
        "OBJECT_ID": "2025-042A",
        "EPOCH": "2026-07-21T20:46:04.787616",
        "MEAN_MOTION": 2.13103874,
        "ECCENTRICITY": 0.00055922,
        "INCLINATION": 65.1046,
        "RA_OF_ASC_NODE": 71.6233,
        "ARG_OF_PERICENTER": 211.4404,
        "MEAN_ANOMALY": 148.5924,
        "EPHEMERIS_TYPE": 0,
        "CLASSIFICATION_TYPE": "U",
        "NORAD_CAT_ID": 63130,
        "ELEMENT_SET_NO": 999,
        "REV_AT_EPOCH": 1078,
        "BSTAR": 0,
        "MEAN_MOTION_DOT": -5.3e-07,
        "MEAN_MOTION_DDOT": 0
    },
    {
        "OBJECT_NAME": "COSMOS 2596 [GLONASS-K1]",
        "OBJECT_ID": "2025-206B",
        "EPOCH": "2026-07-21T17:05:13.845120",
        "MEAN_MOTION": 2.1310103,
        "ECCENTRICITY": 0.00112411,
        "INCLINATION": 64.612,
        "RA_OF_ASC_NODE": 313.7831,
        "ARG_OF_PERICENTER": 307.007,
        "MEAN_ANOMALY": 51.3277,
        "EPHEMERIS_TYPE": 0,
        "CLASSIFICATION_TYPE": "U",
        "NORAD_CAT_ID": 65590,
        "ELEMENT_SET_NO": 999,
        "REV_AT_EPOCH": 664,
        "BSTAR": 0,
        "MEAN_MOTION_DOT": -9e-07,
        "MEAN_MOTION_DDOT": 0
    }
]
